[{"OBJECT_NAME":"SITRO-AIS 27","OBJECT_ID":"2024-039T","EPOCH":"2026-03-07T15:04:02.225856","MEAN_MOTION":14.92818888,"ECCENTRICITY":0.01448899,"INCLINATION":95.3942,"RA_OF_ASC_NODE":165.4771,"ARG_OF_PERICENTER":322.9404,"MEAN_ANOMALY":36.1882,"EPHEMERIS_TYPE":0,"CLASSIFICATION_TYPE":"U","NORAD_CAT_ID":59068,"ELEMENT_SET_NO":999,"REV_AT_EPOCH":10958,"BSTAR":0.00046858855,"MEAN_MOTION_DOT":5.918e-5,"MEAN_MOTION_DDOT":0},{"OBJECT_NAME":"SITRO-AIS 28","OBJECT_ID":"2024-039U","EPOCH":"2026-03-07T14:34:56.180352","MEAN_MOTION":14.92850495,"ECCENTRICITY":0.01448432,"INCLINATION":95.394,"RA_OF_ASC_NODE":165.5047,"ARG_OF_PERICENTER":322.8263,"MEAN_ANOMALY":36.2999,"EPHEMERIS_TYPE":0,"CLASSIFICATION_TYPE":"U","NORAD_CAT_ID":59071,"ELEMENT_SET_NO":999,"REV_AT_EPOCH":10958,"BSTAR":0.00048371906,"MEAN_MOTION_DOT":6.115e-5,"MEAN_MOTION_DDOT":0},{"OBJECT_NAME":"GRBBETA","OBJECT_ID":"2024-128C","EPOCH":"2026-03-07T15:33:57.415680","MEAN_MOTION":15.05763005,"ECCENTRICITY":0.00516156,"INCLINATION":61.9902,"RA_OF_ASC_NODE":212.2887,"ARG_OF_PERICENTER":113.7049,"MEAN_ANOMALY":246.9471,"EPHEMERIS_TYPE":0,"CLASSIFICATION_TYPE":"U","NORAD_CAT_ID":60237,"ELEMENT_SET_NO":999,"REV_AT_EPOCH":9097,"BSTAR":0.00056577892,"MEAN_MOTION_DOT":8.275e-5,"MEAN_MOTION_DDOT":0},{"OBJECT_NAME":"OOV-CUBE (TUBSAT-30)","OBJECT_ID":"2024-128F","EPOCH":"2026-03-07T15:11:02.918688","MEAN_MOTION":15.02232851,"ECCENTRICITY":0.00546426,"INCLINATION":61.9946,"RA_OF_ASC_NODE":219.5521,"ARG_OF_PERICENTER":111.9163,"MEAN_ANOMALY":248.775,"EPHEMERIS_TYPE":0,"CLASSIFICATION_TYPE":"U","NORAD_CAT_ID":60240,"ELEMENT_SET_NO":999,"REV_AT_EPOCH":9085,"BSTAR":0.00039167775,"MEAN_MOTION_DOT":5.147e-5,"MEAN_MOTION_DDOT":0},{"OBJECT_NAME":"ROBUSTA-3A (MEDITERRANEE)","OBJECT_ID":"2024-128J","EPOCH":"2026-03-07T14:40:59.189088","MEAN_MOTION":15.10017259,"ECCENTRICITY":0.00522167,"INCLINATION":61.9866,"RA_OF_ASC_NODE":207.0138,"ARG_OF_PERICENTER":107.8595,"MEAN_ANOMALY":252.8204,"EPHEMERIS_TYPE":0,"CLASSIFICATION_TYPE":"U","NORAD_CAT_ID":60243,"ELEMENT_SET_NO":999,"REV_AT_EPOCH":9107,"BSTAR":0.00087328115,"MEAN_MOTION_DOT":0.00014543,"MEAN_MOTION_DDOT":0},{"OBJECT_NAME":"LASARSAT","OBJECT_ID":"2024-247Q","EPOCH":"2026-03-07T09:57:46.357632","MEAN_MOTION":15.39992115,"ECCENTRICITY":0.00023884,"INCLINATION":44.9748,"RA_OF_ASC_NODE":111.4123,"ARG_OF_PERICENTER":19.4505,"MEAN_ANOMALY":340.6473,"EPHEMERIS_TYPE":0,"CLASSIFICATION_TYPE":"U","NORAD_CAT_ID":62391,"ELEMENT_SET_NO":999,"REV_AT_EPOCH":6759,"BSTAR":0.0010293164,"MEAN_MOTION_DOT":0.00041831,"MEAN_MOTION_DDOT":0},{"OBJECT_NAME":"CROCUBE","OBJECT_ID":"2024-247T","EPOCH":"2026-03-07T04:29:41.308224","MEAN_MOTION":15.41091428,"ECCENTRICITY":0.00024542,"INCLINATION":44.9724,"RA_OF_ASC_NODE":111.3248,"ARG_OF_PERICENTER":359.0936,"MEAN_ANOMALY":0.9947,"EPHEMERIS_TYPE":0,"CLASSIFICATION_TYPE":"U","NORAD_CAT_ID":62394,"ELEMENT_SET_NO":999,"REV_AT_EPOCH":6757,"BSTAR":0.00088238149,"MEAN_MOTION_DOT":0.00037125,"MEAN_MOTION_DDOT":0}]
