SITRO-AIS 27            
1 59068U 24039T   26066.62780354  .00005918  00000+0  46859-3 0  9998
2 59068  95.3942 165.4771 0144889 322.9404  36.1882 14.92818888109589
SITRO-AIS 28            
1 59071U 24039U   26066.60759468  .00006115  00000+0  48372-3 0  9994
2 59071  95.3940 165.5047 0144843 322.8263  36.2999 14.92850495109580
GRBBETA                 
1 60237U 24128C   26066.64858120  .00008275  00000+0  56578-3 0  9994
2 60237  61.9902 212.2887 0051615 113.7049 246.9471 15.05763005 90970
OOV-CUBE (TUBSAT-30)    
1 60240U 24128F   26066.63267267  .00005147  00000+0  39168-3 0  9994
2 60240  61.9946 219.5521 0054642 111.9163 248.7750 15.02232851 90851
ROBUSTA-3A (MEDITERRAN*)
1 60243U 24128J   26066.61179617  .00014543  00000+0  87328-3 0  9997
2 60243  61.9866 207.0138 0052216 107.8595 252.8204 15.10017259 91076
LASARSAT                
1 62391U 24247Q   26066.41511988  .00041831  00000+0  10293-2 0  9990
2 62391  44.9748 111.4123 0002388  19.4505 340.6473 15.39992115 67596
CROCUBE                 
1 62394U 24247T   26066.18728366  .00037125  00000+0  88238-3 0  9993
2 62394  44.9724 111.3248 0002454 359.0936   0.9947 15.41091428 67575
